start=new Date('2023-01-30T00:00:00.000Z').valueOf();
sats=[{"ECCENTRICITY":"0.00011320","TLE_LINE1":"1 48099U 21027H   23029.82959321 -.00000527  00000-0 -16523-4 0  9994","OBJECT_NAME":"STARLINK-2428","EPHEMERIS_TYPE":"0","MEAN_ANOMALY":"274.8797","CLASSIFICATION_TYPE":"U","OBJECT_TYPE":"PAYLOAD","RCS_SIZE":"LARGE","MEAN_MOTION_DDOT":"0.0000000000000","COUNTRY_CODE":"US","PERIOD":"95.593","MEAN_MOTION_DOT":"-0.00000527","MEAN_MOTION":"15.06393175","BSTAR":"-0.00001652300000","GP_ID":"223955607","ELEMENT_SET_NO":"999","TLE_LINE2":"2 48099  53.0508 226.2132 0001132  85.2321 274.8797 15.06393175101364","OBJECT_ID":"2021-027H","REV_AT_EPOCH":"10136","SEMIMAJOR_AXIS":"6925.369","NORAD_CAT_ID":"48099","LAUNCH_DATE":"2021-04-07","EPOCH":"2023-01-29T19:54:36.853344","DECAY_DATE":null,"ARG_OF_PERICENTER":"85.2321","PERIAPSIS":"546.451","REF_FRAME":"TEME","INCLINATION":"53.0508","APOAPSIS":"548.018","SITE":"AFETR","FILE":"3765015","RA_OF_ASC_NODE":"226.2132","MEAN_ELEMENT_THEORY":"SGP4","CENTER_NAME":"EARTH","TIME_SYSTEM":"UTC"},{"DECAY_DATE":null,"PERIAPSIS":"546.395","ARG_OF_PERICENTER":"89.9801","LAUNCH_DATE":"2021-04-07","NORAD_CAT_ID":"48100","SEMIMAJOR_AXIS":"6925.360","REV_AT_EPOCH":"10165","OBJECT_ID":"2021-027J","TLE_LINE2":"2 48100  53.0532 206.0801 0001199  89.9801 270.1325 15.06396289101657","EPOCH":"2023-01-29T20:34:24.919968","FILE":"3765015","SITE":"AFETR","MEAN_ELEMENT_THEORY":"SGP4","CENTER_NAME":"EARTH","TIME_SYSTEM":"UTC","RA_OF_ASC_NODE":"206.0801","APOAPSIS":"548.055","REF_FRAME":"TEME","INCLINATION":"53.0532","RCS_SIZE":"LARGE","OBJECT_TYPE":"PAYLOAD","MEAN_MOTION_DDOT":"0.0000000000000","ECCENTRICITY":"0.00011990","CLASSIFICATION_TYPE":"U","EPHEMERIS_TYPE":"0","MEAN_ANOMALY":"270.1325","OBJECT_NAME":"STARLINK-2430","TLE_LINE1":"1 48100U 21027J   23029.85723287  .00000265  00000-0  36668-4 0  9999","BSTAR":"0.00003666800000","MEAN_MOTION":"15.06396289","GP_ID":"223956359","ELEMENT_SET_NO":"999","COUNTRY_CODE":"US","MEAN_MOTION_DOT":"0.00000265","PERIOD":"95.592"},{"DECAY_DATE":null,"ARG_OF_PERICENTER":"80.5590","PERIAPSIS":"546.509","REV_AT_EPOCH":"10152","SEMIMAJOR_AXIS":"6925.352","TLE_LINE2":"2 48101  53.0526 215.8610 0001022  80.5590 279.5515 15.06398829101526","OBJECT_ID":"2021-027K","LAUNCH_DATE":"2021-04-07","NORAD_CAT_ID":"48101","EPOCH":"2023-01-29T21:46:02.166528","SITE":"AFETR","FILE":"3765015","TIME_SYSTEM":"UTC","MEAN_ELEMENT_THEORY":"SGP4","CENTER_NAME":"EARTH","RA_OF_ASC_NODE":"215.8610","APOAPSIS":"547.925","REF_FRAME":"TEME","INCLINATION":"53.0526","OBJECT_TYPE":"PAYLOAD","RCS_SIZE":"LARGE","MEAN_MOTION_DDOT":"0.0000000000000","ECCENTRICITY":"0.00010220","OBJECT_NAME":"STARLINK-2436","TLE_LINE1":"1 48101U 21027K   23029.90696952  .00000992  00000-0  85483-4 0  9990","CLASSIFICATION_TYPE":"U","MEAN_ANOMALY":"279.5515","EPHEMERIS_TYPE":"0","BSTAR":"0.00008548300000","MEAN_MOTION":"15.06398829","GP_ID":"223956110","ELEMENT_SET_NO":"999","COUNTRY_CODE":"US","PERIOD":"95.592","MEAN_MOTION_DOT":"0.00000992"},{"TLE_LINE1":"1 48102U 21027L   23029.88304486 -.00001017  00000-0 -49414-4 0  9991","OBJECT_NAME":"STARLINK-2437","MEAN_ANOMALY":"268.4842","EPHEMERIS_TYPE":"0","CLASSIFICATION_TYPE":"U","ECCENTRICITY":"0.00012070","MEAN_MOTION_DDOT":"0.0000000000000","OBJECT_TYPE":"PAYLOAD","RCS_SIZE":"LARGE","PERIOD":"95.593","MEAN_MOTION_DOT":"-0.00001017","COUNTRY_CODE":"US","GP_ID":"223954858","ELEMENT_SET_NO":"999","BSTAR":"-0.00004941400000","MEAN_MOTION":"15.06387649","EPOCH":"2023-01-29T21:11:35.075904","TLE_LINE2":"2 48102  53.0545 205.9571 0001207  91.6285 268.4842 15.06387649101655","OBJECT_ID":"2021-027L","SEMIMAJOR_AXIS":"6925.386","REV_AT_EPOCH":"10165","NORAD_CAT_ID":"48102","LAUNCH_DATE":"2021-04-07","ARG_OF_PERICENTER":"91.6285","PERIAPSIS":"546.416","DECAY_DATE":null,"REF_FRAME":"TEME","INCLINATION":"53.0545","APOAPSIS":"548.087","RA_OF_ASC_NODE":"205.9571","CENTER_NAME":"EARTH","TIME_SYSTEM":"UTC","MEAN_ELEMENT_THEORY":"SGP4","SITE":"AFETR","FILE":"3765015"},{"INCLINATION":"53.0519","REF_FRAME":"TEME","APOAPSIS":"548.105","RA_OF_ASC_NODE":"206.5526","MEAN_ELEMENT_THEORY":"SGP4","TIME_SYSTEM":"UTC","CENTER_NAME":"EARTH","FILE":"3765015","SITE":"AFETR","EPOCH":"2023-01-29T18:15:03.010464","NORAD_CAT_ID":"48103","LAUNCH_DATE":"2021-04-07","TLE_LINE2":"2 48103  53.0519 206.5526 0001275 101.5703 258.5429 15.06397134101634","OBJECT_ID":"2021-027M","SEMIMAJOR_AXIS":"6925.357","REV_AT_EPOCH":"10163","ARG_OF_PERICENTER":"101.5703","PERIAPSIS":"546.339","DECAY_DATE":null,"MEAN_MOTION_DOT":"-0.00000077","PERIOD":"95.592","COUNTRY_CODE":"US","GP_ID":"223955108","ELEMENT_SET_NO":"999","MEAN_MOTION":"15.06397134","BSTAR":"0.00001374800000","MEAN_ANOMALY":"258.5429","EPHEMERIS_TYPE":"0","CLASSIFICATION_TYPE":"U","TLE_LINE1":"1 48103U 21027M   23029.76045151 -.00000077  00000-0  13748-4 0  9995","OBJECT_NAME":"STARLINK-2438","ECCENTRICITY":"0.00012750","MEAN_MOTION_DDOT":"0.0000000000000","RCS_SIZE":"MEDIUM","OBJECT_TYPE":"PAYLOAD"},{"APOAPSIS":"547.996","REF_FRAME":"TEME","INCLINATION":"53.0538","FILE":"3765015","SITE":"AFETR","TIME_SYSTEM":"UTC","CENTER_NAME":"EARTH","MEAN_ELEMENT_THEORY":"SGP4","RA_OF_ASC_NODE":"211.4683","LAUNCH_DATE":"2021-04-07","NORAD_CAT_ID":"48104","SEMIMAJOR_AXIS":"6925.342","REV_AT_EPOCH":"10157","TLE_LINE2":"2 48104  53.0538 211.4683 0001139  85.1865 274.9254 15.06402155101571","OBJECT_ID":"2021-027N","EPOCH":"2023-01-29T18:29:00.850272","DECAY_DATE":null,"PERIAPSIS":"546.418","ARG_OF_PERICENTER":"85.1865","COUNTRY_CODE":"US","MEAN_MOTION_DOT":"0.00000939","PERIOD":"95.592","MEAN_MOTION":"15.06402155","BSTAR":"0.00008189600000","ELEMENT_SET_NO":"999","GP_ID":"223955860","ECCENTRICITY":"0.00011390","CLASSIFICATION_TYPE":"U","EPHEMERIS_TYPE":"0","MEAN_ANOMALY":"274.9254","OBJECT_NAME":"STARLINK-2439","TLE_LINE1":"1 48104U 21027N   23029.77014873  .00000939  00000-0  81896-4 0  9999","RCS_SIZE":"LARGE","OBJECT_TYPE":"PAYLOAD","MEAN_MOTION_DDOT":"0.0000000000000"},{"ARG_OF_PERICENTER":"85.4606","PERIAPSIS":"546.460","DECAY_DATE":null,"EPOCH":"2023-01-29T14:40:07.748256","REV_AT_EPOCH":"10231","SEMIMAJOR_AXIS":"6925.357","OBJECT_ID":"2021-027P","TLE_LINE2":"2 48105  53.0533 157.1838 0001100  85.4606 274.6509 15.06397306102313","LAUNCH_DATE":"2021-04-07","NORAD_CAT_ID":"48105","CENTER_NAME":"EARTH","TIME_SYSTEM":"UTC","MEAN_ELEMENT_THEORY":"SGP4","RA_OF_ASC_NODE":"157.1838","SITE":"AFETR","FILE":"3765015","APOAPSIS":"547.984","INCLINATION":"53.0533","REF_FRAME":"TEME","MEAN_MOTION_DDOT":"0.0000000000000","OBJECT_TYPE":"PAYLOAD","RCS_SIZE":"LARGE","OBJECT_NAME":"STARLINK-2440","TLE_LINE1":"1 48105U 21027P   23029.61120079 -.00001072  00000-0 -53077-4 0  9990","CLASSIFICATION_TYPE":"U","MEAN_ANOMALY":"274.6509","EPHEMERIS_TYPE":"0","ECCENTRICITY":"0.00011000","ELEMENT_SET_NO":"999","GP_ID":"223956610","MEAN_MOTION":"15.06397306","BSTAR":"-0.00005307700000","PERIOD":"95.592","MEAN_MOTION_DOT":"-0.00001072","COUNTRY_CODE":"US"},{"FILE":"3765015","SITE":"AFETR","CENTER_NAME":"EARTH","TIME_SYSTEM":"UTC","MEAN_ELEMENT_THEORY":"SGP4","RA_OF_ASC_NODE":"206.0732","APOAPSIS":"547.906","REF_FRAME":"TEME","INCLINATION":"53.0530","DECAY_DATE":null,"ARG_OF_PERICENTER":"92.3614","PERIAPSIS":"546.544","LAUNCH_DATE":"2021-04-07","NORAD_CAT_ID":"48106","REV_AT_EPOCH":"10165","SEMIMAJOR_AXIS":"6925.360","OBJECT_ID":"2021-027Q","TLE_LINE2":"2 48106  53.0530 206.0732 0000983  92.3614 267.7488 15.06396254101658","EPOCH":"2023-01-29T20:39:43.341120","BSTAR":"0.00005254200000","MEAN_MOTION":"15.06396254","GP_ID":"223955358","ELEMENT_SET_NO":"999","COUNTRY_CODE":"US","MEAN_MOTION_DOT":"0.00000501","PERIOD":"95.592","RCS_SIZE":"LARGE","OBJECT_TYPE":"PAYLOAD","MEAN_MOTION_DDOT":"0.0000000000000","ECCENTRICITY":"0.00009830","CLASSIFICATION_TYPE":"U","MEAN_ANOMALY":"267.7488","EPHEMERIS_TYPE":"0","OBJECT_NAME":"STARLINK-2442","TLE_LINE1":"1 48106U 21027Q   23029.86091830  .00000501  00000-0  52542-4 0  9990"},{"BSTAR":"0.00015160000000","MEAN_MOTION":"15.06400909","ELEMENT_SET_NO":"999","GP_ID":"223955608","COUNTRY_CODE":"US","PERIOD":"95.592","MEAN_MOTION_DOT":"0.00001977","OBJECT_TYPE":"PAYLOAD","RCS_SIZE":"LARGE","MEAN_MOTION_DDOT":"0.0000000000000","ECCENTRICITY":"0.00012530","TLE_LINE1":"1 48107U 21027R   23029.87566046  .00001977  00000-0  15160-3 0  9990","OBJECT_NAME":"STARLINK-2443","EPHEMERIS_TYPE":"0","MEAN_ANOMALY":"272.5982","CLASSIFICATION_TYPE":"U","SITE":"AFETR","FILE":"3765015","RA_OF_ASC_NODE":"205.9986","MEAN_ELEMENT_THEORY":"SGP4","CENTER_NAME":"EARTH","TIME_SYSTEM":"UTC","INCLINATION":"53.0513","REF_FRAME":"TEME","APOAPSIS":"548.079","DECAY_DATE":null,"PERIAPSIS":"546.343","ARG_OF_PERICENTER":"87.5151","TLE_LINE2":"2 48107  53.0513 205.9986 0001253  87.5151 272.5982 15.06400909101658","OBJECT_ID":"2021-027R","REV_AT_EPOCH":"10165","SEMIMAJOR_AXIS":"6925.346","NORAD_CAT_ID":"48107","LAUNCH_DATE":"2021-04-07","EPOCH":"2023-01-29T21:00:57.063744"},{"DECAY_DATE":null,"ARG_OF_PERICENTER":"68.2443","PERIAPSIS":"545.863","REV_AT_EPOCH":"10151","SEMIMAJOR_AXIS":"6925.330","TLE_LINE2":"2 48108  53.0522 215.8186 0001924  68.2443 291.8751 15.06405908101513","OBJECT_ID":"2021-027S","LAUNCH_DATE":"2021-04-07","NORAD_CAT_ID":"48108","EPOCH":"2023-01-29T21:58:00.103872","SITE":"AFETR","FILE":"3765015","TIME_SYSTEM":"UTC","MEAN_ELEMENT_THEORY":"SGP4","CENTER_NAME":"EARTH","RA_OF_ASC_NODE":"215.8186","APOAPSIS":"548.528","INCLINATION":"53.0522","REF_FRAME":"TEME","OBJECT_TYPE":"PAYLOAD","RCS_SIZE":"LARGE","MEAN_MOTION_DDOT":"0.0000000000000","ECCENTRICITY":"0.00019240","OBJECT_NAME":"STARLINK-2444","TLE_LINE1":"1 48108U 21027S   23029.91527898 -.00004651  00000-0 -29346-3 0  9993","CLASSIFICATION_TYPE":"U","MEAN_ANOMALY":"291.8751","EPHEMERIS_TYPE":"0","MEAN_MOTION":"15.06405908","BSTAR":"-0.00029346000000","GP_ID":"223956360","ELEMENT_SET_NO":"999","COUNTRY_CODE":"US","PERIOD":"95.592","MEAN_MOTION_DOT":"-0.00004651"}];
